NORAD_CAT_ID,OBJECT_NAME,OBJECT_TYPE,EPOCH,MEAN_MOTION,ECCENTRICITY,INCLINATION,RA_OF_ASC_NODE,ARG_OF_PERICENTER,MEAN_ANOMALY,BSTAR,MEAN_MOTION_DOT,MEAN_MOTION_DDOT,TLE_LINE0,TLE_LINE1,TLE_LINE2,SEMIMAJOR_AXIS,PERIOD,APOGEE,PERIGEE,DECAYED
52355.0,STARLINK-3877,PAYLOAD,2022-07-02 22:00:00,15.38433214,0.0001696,53.2178,122.4999,44.9669,151.7643,-0.020139,-0.00716203,0.0,0 STARLINK-3877,1 52355U 22045AA  22183.91667824 -.00716203  00000-0 -20139-1 0  9999,2 52355  53.2178 122.4999 0001696  44.9669 151.7643 15.38433214  1309,6828.879,93.602,451.902,449.586,0.0
52355.0,STARLINK-3877,PAYLOAD,2022-07-03 00:00:00,15.38306357,0.0001595,53.2176,122.1091,43.6417,254.8572,-0.02025,-0.00717073,0.0,0 STARLINK-3877,1 52355U 22045AA  22184.00001157 -.00717073  00000-0 -20250-1 0  9991,2 52355  53.2176 122.1091 0001595  43.6417 254.8572 15.38306357 12600,6829.254,93.609,452.209,450.03,0.0
52355.0,STARLINK-3877,PAYLOAD,2022-07-03 14:00:01,15.37415034,0.0001439,53.2176,119.3715,51.0101,238.7956,-0.020919,-0.00719273,0.0,0 STARLINK-3877,1 52355U 22045AA  22184.58334491 -.00719273  00000-0 -20919-1 0  9990,2 52355  53.2176 119.3715 0001439  51.0101 238.7956 15.37415034  1305,6831.894,93.664,454.742,452.775,0.0
52355.0,STARLINK-3877,PAYLOAD,2022-07-03 22:00:00,15.36905167,0.0001654,53.2178,117.8095,38.9876,296.4361,-0.021263,-0.00719109,0.0,0 STARLINK-3877,1 52355U 22045AA  22184.91667824 -.00719109  00000-0 -21263-1 0  9997,2 52355  53.2178 117.8095 0001654  38.9876 296.4361 15.36905167  1304,6833.404,93.695,456.4,454.139,0.0
52355.0,STARLINK-3877,PAYLOAD,2022-07-04 06:00:00,15.36392806,0.0001588,53.2175,116.25,40.7928,339.6363,-0.02149,-0.00715114,0.0,0 STARLINK-3877,1 52355U 22045AA  22185.25001157 -.00715114  00000-0 -21490-1 0  9990,2 52355  53.2175 116.2500 0001588  40.7928 339.6363 15.36392806 12797,6834.924,93.726,457.874,455.703,0.0
52355.0,STARLINK-3877,PAYLOAD,2022-07-04 14:00:01,15.35883362,0.0001525,53.2175,114.6883,42.3705,22.4525,-0.021895,-0.00716557,0.0,0 STARLINK-3877,1 52355U 22045AA  22185.58334491 -.00716557  00000-0 -21895-1 0  9997,2 52355  53.2175 114.6883 0001525  42.3705  22.4525 15.35883362  1308,6836.435,93.757,459.342,457.257,0.0
52355.0,STARLINK-3877,PAYLOAD,2022-07-04 22:00:00,15.35374715,0.000162,53.2176,113.1301,44.1952,64.4068,-0.022324,-0.00718566,0.0,0 STARLINK-3877,1 52355U 22045AA  22185.91667824 -.00718566  00000-0 -22324-1 0  9993,2 52355  53.2176 113.1301 0001620  44.1952  64.4068 15.35374715  1303,6837.945,93.788,460.917,458.702,0.0
52355.0,STARLINK-3877,PAYLOAD,2022-07-05 08:00:01,15.34738441,0.0001506999999999,53.2171,111.1845,51.7352,200.7288,-0.022832,-0.00719923,0.0,0 STARLINK-3877,1 52355U 22045AA  22186.33334491 -.00719923  00000-0 -22832-1 0  9993,2 52355  53.2171 111.1845 0001507  51.7352 200.7288 15.34738441 12963,6839.835,93.827,462.73,460.669,0.0
52355.0,STARLINK-3877,PAYLOAD,2022-07-05 14:00:01,15.34352812,0.0001602,53.2174,110.016,47.969,146.3554,-0.022934,-0.00714704,0.0,0 STARLINK-3877,1 52355U 22045AA  22186.58334491 -.00714704  00000-0 -22934-1 0  9995,2 52355  53.2174 110.0160 0001602  47.9690 146.3554 15.34352812  1303,6840.98,93.851,463.941,461.75,0.0
52355.0,STARLINK-3877,PAYLOAD,2022-07-05 22:00:00,15.33843376,0.0001603,53.2176,108.4617,49.6943,186.5709,-0.023343,-0.0071563999999999,0.0,0 STARLINK-3877,1 52355U 22045AA  22186.91667824 -.00715640  00000-0 -23343-1 0  9996,2 52355  53.2176 108.4617 0001603  49.6943 186.5709 15.33843376  1301,6842.495,93.882,465.457,463.263,0.0
52355.0,STARLINK-3877,PAYLOAD,2022-07-06 14:00:01,15.32822649,0.0001489,53.2174,105.3546,46.1443,272.1666,-0.024073,-0.00714548,0.0,0 STARLINK-3877,1 52355U 22045AA  22187.58334491 -.00714548  00000-0 -24073-1 0  9998,2 52355  53.2174 105.3546 0001489  46.1443 272.1666 15.32822649  1308,6845.531999999997,93.944,468.417,466.378,0.0
52355.0,STARLINK-3877,PAYLOAD,2022-07-06 16:00:00,15.32695256,0.0001548,53.2173,104.9662,42.6996,15.6948,-0.0242,-0.00715369,0.0,0 STARLINK-3877,1 52355U 22045AA  22187.66667824 -.00715369  00000-0 -24200-1 0  9990,2 52355  53.2173 104.9662 0001548  42.6996  15.6948 15.32695256 13163,6845.9119999999975,93.952,468.837,466.717,0.0
52355.0,STARLINK-3877,PAYLOAD,2022-07-06 22:00:00,15.32314875,0.0001547,53.2175,103.8039,43.8998,314.5129,-0.024585,-0.00717863,0.0,0 STARLINK-3877,1 52355U 22045AA  22187.91667824 -.00717863  00000-0 -24585-1 0  9995,2 52355  53.2175 103.8039 0001547  43.8998 314.5129 15.32314875  1305,6847.045,93.975,469.969,467.85,0.0
52355.0,STARLINK-3877,PAYLOAD,2022-07-07 04:16:56,15.33239704,0.0004143,53.2177,102.5844,89.4519,270.6959,-0.0068979,-0.00218694,0.0,0 STARLINK-3877,1 52355U 22045AA  22188.17842898 -.00218694  00000-0 -68979-2 0  9994,2 52355  53.2177 102.5844 0004143  89.4519 270.6959 15.33239704 13244,6844.291,93.919,468.992,463.32,0.0
52355.0,STARLINK-3877,PAYLOAD,2022-07-07 14:00:01,15.31292603,0.0001585,53.2174,100.7039,41.8631,34.9192,-0.025261,-0.00714535,0.0,0 STARLINK-3877,1 52355U 22045AA  22188.58334491 -.00714535  00000-0 -25261-1 0  9995,2 52355  53.2174 100.7039 0001585  41.8631  34.9192 15.31292603 13303,6850.092,94.038,473.042,470.871,0.0
52355.0,STARLINK-3877,PAYLOAD,2022-07-07 21:30:40,15.32147141,0.0002099,53.2181,99.2466,10.1128,349.9916,-0.0067021999999999,-0.00205605,0.0,0 STARLINK-3877,1 52355U 22045AA  22188.89630475 -.00205605  00000-0 -67022-2 0  9995,2 52355  53.2181  99.2466 0002099  10.1128 349.9916 15.32147141 13353,6847.544,93.986,470.847,467.972,0.0
52355.0,STARLINK-3877,PAYLOAD,2022-07-08 08:28:56,15.3151105,0.0002844,53.2191,97.1308,17.2932,342.8167,-0.0073929,-0.00221833,0.0,0 STARLINK-3877,1 52355U 22045AA  22189.35342844 -.00221833  00000-0 -73929-2 0  9991,2 52355  53.2191  97.1308 0002844  17.2932 342.8167 15.31511050 13426,6849.44,94.025,473.253,469.357,0.0
52355.0,STARLINK-3877,PAYLOAD,2022-07-08 13:11:08,15.31131893,0.0001077,53.2183,96.218,103.6595,256.4527,-0.0065216,-0.001941,0.0,0 STARLINK-3877,1 52355U 22045AA  22189.54940218 -.00194100  00000-0 -65216-2 0  9997,2 52355  53.2183  96.2180 0001077 103.6595 256.4527 15.31131893 13453,6850.571,94.048,473.174,471.698,0.0
52355.0,STARLINK-3877,PAYLOAD,2022-07-08 22:00:01,15.29252484,0.0001675,53.2174,94.5211,48.1569,178.0706,-0.026871,-0.00713373,0.0,0 STARLINK-3877,1 52355U 22045AA  22189.91668981 -.00713373  00000-0 -26871-1 0  9994,2 52355  53.2174  94.5211 0001675  48.1569 178.0706 15.29252484 13508,6856.183000000001,94.164,479.196,476.899,0.0
52355.0,STARLINK-3877,PAYLOAD,2022-07-09 14:00:01,15.28232002,0.0001573,53.2173,91.4352,44.4078,252.7716,-0.027699,-0.00720821,0.0,0 STARLINK-3877,1 52355U 22045AA  22190.58334491 -.00720821  00000-0 -27699-1 0  9990,2 52355  53.2173  91.4352 0001573  44.4078 252.7716 15.28232002  1309,6859.234,94.227,482.17800000000005,480.021,0.0
52355.0,STARLINK-3877,PAYLOAD,2022-07-09 20:00:01,15.27850775,0.0001843,53.2174,90.2804,40.4267,192.7502,-0.028102,-0.007227,0.0,0 STARLINK-3877,1 52355U 22045AA  22190.83334491 -.00722700  00000-0 -28102-1 0  9996,2 52355  53.2174  90.2804 0001843  40.4267 192.7502 15.27850775  1303,6860.375,94.25,483.505,480.976,0.0
52355.0,STARLINK-3877,PAYLOAD,2022-07-10 14:00:01,15.26702204,0.000157,53.2172,86.8169,41.6731,357.4324,-0.029052,-0.00721415,0.0,0 STARLINK-3877,1 52355U 22045AA  22191.58334491 -.00721415  00000-0 -29052-1 0  9996,2 52355  53.2172  86.8169 0001570  41.6731 357.4324 15.26702204  1306,6863.816,94.321,486.758,484.603,0.0
52355.0,STARLINK-3877,PAYLOAD,2022-07-10 22:00:00,15.26194469,0.0001710999999999,53.2174,85.2815,41.0631,30.7901,-0.029648,-0.00724719,0.0,0 STARLINK-3877,1 52355U 22045AA  22191.91667824 -.00724719  00000-0 -29648-1 0  9993,2 52355  53.2174  85.2815 0001711  41.0631  30.7901 15.26194469 13818,6865.3380000000025,94.352,488.378,486.028,0.0
52355.0,STARLINK-3877,PAYLOAD,2022-07-11 14:00:01,15.25174349,0.0001803,53.2173,82.2097,39.7223,95.7931,-0.030593,-0.00725067,0.0,0 STARLINK-3877,1 52355U 22045AA  22192.58334491 -.00725067  00000-0 -30593-1 0  9996,2 52355  53.2173  82.2097 0001803  39.7223  95.7931 15.25174349  1308,6868.399,94.415,491.502,489.026,0.0
52355.0,STARLINK-3877,PAYLOAD,2022-07-11 22:00:00,15.24662649,0.0002095,53.2173,80.6778,34.0796,132.3468,-0.030912,-0.00721695,0.0,0 STARLINK-3877,1 52355U 22045AA  22192.91667824 -.00721695  00000-0 -30912-1 0  9990,2 52355  53.2173  80.6778 0002095  34.0796 132.3468 15.24662649 13965,6869.936,94.447,493.24,490.361,0.0
52355.0,STARLINK-3877,PAYLOAD,2022-07-12 14:00:01,15.23644214,0.0001862,53.2172,77.613,38.907,187.5042,-0.032011,-0.00724628,0.0,0 STARLINK-3877,1 52355U 22045AA  22193.58334491 -.00724628  00000-0 -32011-1 0  9996,2 52355  53.2172  77.6130 0001862  38.9070 187.5042 15.23644214  1303,6872.996999999999,94.51,496.141,493.582,0.0
52355.0,STARLINK-3877,PAYLOAD,2022-07-12 22:00:00,15.23132372,0.0001984,53.2174,76.085,36.1203,219.3633,-0.032319,-0.00720792,0.0,0 STARLINK-3877,1 52355U 22045AA  22193.91667824 -.00720792  00000-0 -32319-1 0  9991,2 52355  53.2174  76.0850 0001984  36.1203 219.3633 15.23132372 14110,6874.536,94.542,497.765,495.037,0.0
52355.0,STARLINK-3877,PAYLOAD,2022-07-13 14:00:01,15.22112318,0.0001761,53.2173,73.0273,38.5234,273.269,-0.033334,-0.00721171,0.0,0 STARLINK-3877,1 52355U 22045AA  22194.58334491 -.00721171  00000-0 -33334-1 0  9996,2 52355  53.2173  73.0273 0001761  38.5234 273.2690 15.22112318  1304,6877.607,94.605,500.6830000000001,498.261,0.0
52355.0,STARLINK-3877,PAYLOAD,2022-07-13 22:00:00,15.21604229,0.0001945,53.2173,71.5029,33.1156,305.9094,-0.033957,-0.0072354,0.0,0 STARLINK-3877,1 52355U 22045AA  22194.91667824 -.00723540  00000-0 -33957-1 0  9995,2 52355  53.2173  71.5029 0001945  33.1156 305.9094 15.21604229 14260,6879.138000000001,94.637,502.341,499.665,0.0
